OBJECT_NAME,OBJECT_ID,EPOCH,MEAN_MOTION,ECCENTRICITY,INCLINATION,RA_OF_ASC_NODE,ARG_OF_PERICENTER,MEAN_ANOMALY,EPHEMERIS_TYPE,CLASSIFICATION_TYPE,NORAD_CAT_ID,ELEMENT_SET_NO,REV_AT_EPOCH,BSTAR,MEAN_MOTION_DOT,MEAN_MOTION_DDOT
PROX-1,2019-036A,2026-07-08T09:47:33.911232,14.91148060,.00054021,23.9962,332.4428,288.2711,71.7201,0,U,44339,999,37664,.74861164E-3,.7901E-4,0
NPSAT1,2019-036B,2026-07-08T23:22:34.311072,14.74785262,.00075581,23.9989,75.8381,97.7047,262.4308,0,U,44340,999,37571,.469285E-3,.346E-4,0
FORMOSAT 7-3,2019-036E,2026-07-08T22:13:16.743072,15.09962895,.00007291,24.0001,28.9041,145.0894,214.9657,0,U,44343,999,38653,.15787915E-3,.2976E-4,0
FORMOSAT 7-1,2019-036L,2026-07-08T05:59:37.865184,14.96596721,.00011375,23.9976,250.3899,73.6419,286.4207,0,U,44349,999,38781,.11390258E-3,.1632E-4,0
FORMOSAT 7-4,2019-036M,2026-07-08T16:08:12.266016,14.96594941,.00015637,23.9993,309.6478,81.6057,278.4621,0,U,44350,999,38729,.13639936E-3,.1895E-4,0
FORMOSAT 7-2,2019-036N,2026-07-08T16:40:24.132000,14.96592631,.00009711,24.0001,3.8099,73.5344,286.5264,0,U,44351,999,38681,.14193493E-3,.1959E-4,0
FORMOSAT 7-6,2019-036Q,2026-07-08T07:03:45.746208,14.96595512,.00010107,23.9965,187.3218,7.4831,352.5685,0,U,44353,999,38498,.11458683E-3,.164E-4,0
FORMOSAT 7-5,2019-036V,2026-07-08T22:31:15.453120,14.96575990,.00006478,23.9977,121.7270,102.8581,257.1992,0,U,44358,999,38561,.12190627E-3,.1724E-4,0
METEOR-M2 2,2019-038A,2026-07-08T22:48:59.753376,14.24371366,.00010836,98.9161,177.5581,15.5468,344.5743,0,U,44387,999,36439,-.1329904E-5,-.49E-6,0
GLOBAL-4,2019-054E,2026-07-07T22:40:51.979584,15.66458654,.00043252,45.0043,116.4508,145.7131,214.4047,0,U,44499,999,38361,.3522962E-3,.37372E-3,0
ZY-1 02D,2019-059A,2026-07-08T22:59:12.476256,14.35266531,.00033986,98.6712,251.4833,323.0670,37.0281,0,U,44528,999,35746,-.50341844E-4,-.189E-5,0
TAURUS-1 (JINNIUZUO 1),2019-059C,2026-07-08T22:10:12.738720,14.72328192,.00075998,98.6437,356.1059,237.1777,122.8697,0,U,44530,999,36184,.43685181E-3,.2708E-4,0
ZHUHAI-1 03B,2019-060C,2026-07-08T22:30:56.781216,15.55360445,.00080598,97.5548,348.9005,229.3975,130.6578,0,U,44536,999,37970,.32319093E-3,.21906E-3,0
ZHUHAI-1 03D,2019-060E,2026-07-08T21:50:28.339872,15.51061156,.00071373,97.5393,340.8022,214.5766,145.5022,0,U,44538,999,37944,.40538841E-3,.23546E-3,0
ZHUHAI-1 03E,2019-060F,2026-07-08T22:13:29.354016,15.41779437,.00044792,97.5633,340.6414,305.7841,54.2989,0,U,44539,999,37911,.28841204E-3,.12122E-3,0
GAOFEN-7,2019-072A,2026-07-09T05:35:36.381408,15.21487620,.0017824,97.5602,250.9332,326.2768,33.7332,0,U,44703,999,37099,.14213E-3,.3137E-4,0
JILIN-1 GAOFEN 2A,2019-075A,2026-07-08T23:21:18.824256,15.39901434,.00058057,97.4959,274.2802,18.0880,342.0571,0,U,44777,999,36823,.27188151E-3,.10734E-3,0
NINGXIA-1 1,2019-076A,2026-07-08T23:40:27.918336,14.02041444,.00116317,45.0061,82.4344,262.4725,97.4788,0,U,44779,999,34091,.43031817E-4,-.64E-6,0
NINGXIA-1 5,2019-076E,2026-07-08T22:15:55.127232,14.02089361,.001136,45.0054,82.0307,253.3518,106.6069,0,U,44783,999,34082,.32134565E-4,-.8E-6,0
KL-ALPHA A,2019-077A,2026-07-08T23:04:30.038592,13.56045418,.00128876,88.9239,220.1834,52.4940,307.7384,0,U,44785,999,32868,.13869957E-3,.109E-5,0
CARTOSAT-3,2019-081A,2026-07-08T22:59:42.293760,15.19294874,.00134492,97.4295,251.4737,80.7169,279.5586,0,U,44804,999,36677,.10863506E-3,.2229E-4,0
JILIN-1 GAOFEN 2B,2019-086A,2026-07-08T22:12:49.412160,15.20953603,.00127607,97.4873,261.7824,239.4726,120.5251,0,U,44836,999,36379,.16852544E-3,.3668E-4,0
TIANQIN 1 (CAS-6),2019-093A,2026-07-08T23:14:44.683008,14.95536835,.00105903,97.7795,273.6521,347.6030,12.4928,0,U,44879,999,35530,.12727493E-3,.1353E-4,0
ETRSS-1,2019-093B,2026-07-08T23:15:21.796128,14.95982537,.00107117,97.7811,274.1309,347.6082,12.4874,0,U,44880,999,35531,.1371598E-3,.148E-4,0
TIANYAN 01,2019-093C,2026-07-08T23:43:17.236416,14.86553224,.00141513,97.7520,261.6886,21.4117,338.7688,0,U,44881,999,35465,-.11442225E-4,-.155E-5,0
TIANYAN 02,2019-093D,2026-07-08T22:07:43.728960,15.05489886,.00121312,97.7940,284.9246,313.2109,46.8103,0,U,44882,999,35588,.25909581E-3,.3666E-4,0
CBERS 4A,2019-093E,2026-07-08T23:22:27.395616,14.81437411,.00010848,98.0180,257.4321,133.0606,227.0697,0,U,44883,999,35430,.34018665E-4,.213E-5,0
WEILAI 1R,2019-093F,2026-07-08T23:46:44.057280,15.00831392,.00163088,97.7875,279.9149,329.1825,30.8440,0,U,44884,999,35569,.16942384E-3,.2096E-4,0
