PROX-1                  
1 44339U 19036A   26189.40803138  .00007901  00000+0  74861-3 0  9990
2 44339  23.9962 332.4428 0005402 288.2711  71.7201 14.91148060376640
NPSAT1                  
1 44340U 19036B   26189.97400823  .00003460  00000+0  46929-3 0  9998
2 44340  23.9989  75.8381 0007558  97.7047 262.4308 14.74785262375712
FORMOSAT 7-3            
1 44343U 19036E   26189.92588823  .00002976  00000+0  15788-3 0  9993
2 44343  24.0001  28.9041 0000729 145.0894 214.9657 15.09962895386533
FORMOSAT 7-1            
1 44349U 19036L   26189.24974381  .00001632  00000+0  11390-3 0  9995
2 44349  23.9976 250.3899 0001137  73.6419 286.4207 14.96596721387816
FORMOSAT 7-4            
1 44350U 19036M   26189.67236419  .00001895  00000+0  13640-3 0  9998
2 44350  23.9993 309.6478 0001563  81.6057 278.4621 14.96594941387293
FORMOSAT 7-2            
1 44351U 19036N   26189.69472375  .00001959  00000+0  14193-3 0  9999
2 44351  24.0001   3.8099 0000971  73.5344 286.5264 14.96592631386813
FORMOSAT 7-6            
1 44353U 19036Q   26189.29427947  .00001640  00000+0  11459-3 0  9991
2 44353  23.9965 187.3218 0001010   7.4831 352.5685 14.96595512384983
FORMOSAT 7-5            
1 44358U 19036V   26189.93837330  .00001724  00000+0  12191-3 0  9995
2 44358  23.9977 121.7270 0000647 102.8581 257.1992 14.96575990385618
METEOR-M2 2             
1 44387U 19038A   26189.95069159 -.00000049  00000+0 -13299-5 0  9990
2 44387  98.9161 177.5581 0001083  15.5468 344.5743 14.24371366364399
GLOBAL-4                
1 44499U 19054E   26188.94504606  .00037372  00000+0  35230-3 0  9995
2 44499  45.0043 116.4508 0004325 145.7131 214.4047 15.66458654383612
ZY-1 02D                
1 44528U 19059A   26189.95778329 -.00000189  00000+0 -50342-4 0  9990
2 44528  98.6712 251.4833 0003398 323.0670  37.0281 14.35266531357460
TAURUS-1 (JINNIUZUO 1)  
1 44530U 19059C   26189.92375855  .00002708  00000+0  43685-3 0  9995
2 44530  98.6437 356.1059 0007599 237.1777 122.8697 14.72328192361844
ZHUHAI-1 03B            
1 44536U 19060C   26189.93815719  .00021906  00000+0  32319-3 0  9995
2 44536  97.5548 348.9005 0008059 229.3975 130.6578 15.55360445379704
ZHUHAI-1 03D            
1 44538U 19060E   26189.91005023  .00023546  00000+0  40539-3 0  9999
2 44538  97.5393 340.8022 0007137 214.5766 145.5022 15.51061156379447
ZHUHAI-1 03E            
1 44539U 19060F   26189.92603419  .00012122  00000+0  28841-3 0  9994
2 44539  97.5633 340.6414 0004479 305.7841  54.2989 15.41779437379110
GAOFEN-7                
1 44703U 19072A   26190.23305997  .00003137  00000+0  14213-3 0  9990
2 44703  97.5602 250.9332 0017824 326.2768  33.7332 15.21487620370994
JILIN-1 GAOFEN 2A       
1 44777U 19075A   26189.97313454  .00010734  00000+0  27188-3 0  9996
2 44777  97.4959 274.2802 0005805  18.0880 342.0571 15.39901434368235
NINGXIA-1 1             
1 44779U 19076A   26189.98643424 -.00000064  00000+0  43032-4 0  9996
2 44779  45.0061  82.4344 0011631 262.4725  97.4788 14.02041444340918
NINGXIA-1 5             
1 44783U 19076E   26189.92772138 -.00000080  00000+0  32135-4 0  9990
2 44783  45.0054  82.0307 0011360 253.3518 106.6069 14.02089361340823
KL-ALPHA A              
1 44785U 19077A   26189.96145878  .00000109  00000+0  13870-3 0  9997
2 44785  88.9239 220.1834 0012887  52.4940 307.7384 13.56045418328685
CARTOSAT-3              
1 44804U 19081A   26189.95812840  .00002229  00000+0  10864-3 0  9998
2 44804  97.4295 251.4737 0013449  80.7169 279.5586 15.19294874366770
JILIN-1 GAOFEN 2B       
1 44836U 19086A   26189.92557190  .00003668  00000+0  16853-3 0  9991
2 44836  97.4873 261.7824 0012760 239.4726 120.5251 15.20953603363792
TIANQIN 1 (CAS-6)       
1 44879U 19093A   26189.96857272  .00001353  00000+0  12727-3 0  9999
2 44879  97.7795 273.6521 0010590 347.6030  12.4928 14.95536835355303
ETRSS-1                 
1 44880U 19093B   26189.96900227  .00001480  00000+0  13716-3 0  9990
2 44880  97.7811 274.1309 0010711 347.6082  12.4874 14.95982537355311
TIANYAN 01              
1 44881U 19093C   26189.98839394 -.00000155  00000+0 -11442-4 0  9994
2 44881  97.7520 261.6886 0014151  21.4117 338.7688 14.86553224354658
TIANYAN 02              
1 44882U 19093D   26189.92203390  .00003666  00000+0  25910-3 0  9992
2 44882  97.7940 284.9246 0012131 313.2109  46.8103 15.05489886355881
CBERS 4A                
1 44883U 19093E   26189.97392819  .00000213  00000+0  34019-4 0  9999
2 44883  98.0180 257.4321 0001084 133.0606 227.0697 14.81437411354303
WEILAI 1R               
1 44884U 19093F   26189.99078770  .00002096  00000+0  16942-3 0  9994
2 44884  97.7875 279.9149 0016308 329.1825  30.8440 15.00831392355691
